GLOBALSTAR M057         
1 25943U 99058A   26007.61875409 -.00000124  00000+0 -27968-3 0  9992
2 25943  51.9985 128.0226 0003138  84.4282 275.6925 12.24832174191984
GLOBALSTAR M059         
1 25944U 99058B   26007.77596323 -.00000052  00000+0  42467-3 0  9995
2 25944  52.0045  13.6883 0000325  34.8390 135.6787 11.99989304598606
GLOBALSTAR M056         
1 25945U 99058C   26007.70757961 -.00000106  00000+0 -21983-3 0  9997
2 25945  51.9991  10.5911 0000845 224.5753 306.9385 12.04782503187274
GLOBALSTAR M031         
1 25946U 99058D   26006.93052233 -.00000060  00000+0  31001-3 0  9992
2 25946  51.9950 252.8394 0000388 208.0844 222.1239 12.16046318189332
GLOBALSTAR M039         
1 25961U 99062A   26007.68638360 -.00000122  00000+0 -10280-3 0  9994
2 25961  51.9874   5.8436 0002833  80.6664 279.4523 12.62339955206040
GLOBALSTAR M034         
1 25962U 99062B   26007.70405332 -.00000083  00000+0 -33780-4 0  9996
2 25962  51.9845 199.7589 0015408  69.4544  12.9961 11.79455414162521
GLOBALSTAR M029         
1 25963U 99062C   26007.86138681 -.00000016  00000+0  87174-3 0  9994
2 25963  51.9802 261.3201 0002606 135.7439 303.4496 11.99907673193692
GLOBALSTAR M061         
1 25964U 99062D   26007.76953568 -.00000081  00000+0 -64149-5 0  9995
2 25964  51.9817  26.3386 0005790 350.4472 180.8023 11.76777980145266
